SAR-LUPE 2              
1 31797U 07030A   26178.54115251  .00039656  00000+0  66676-3 0  9997
2 31797  98.1055 284.2680 0002578 180.1641 179.9609 15.51652251 58546
SAPPHIRE                
1 39088U 13009C   26178.47966407  .00000103  00000+0  50985-4 0  9992
2 39088  98.4263 357.6911 0010487 213.1794 146.8736 14.35243251698054
PRAETORIAN SDA_602      
1 65565U 25203A   26176.91435568  .00000104  00000+0  82306-4 0  9999
2 65565  81.3029   2.6841 0006264 162.2891 197.8485 13.84278827 39903
PRAETORIAN SDA_603      
1 65566U 25203B   26178.46168160  .00000195  00000+0  16493-3 0  9996
2 65566  81.3037   1.1732 0009982 160.1129 200.0419 13.83906326 40128
PRAETORIAN SDA_604      
1 65567U 25203C   26178.48776198  .00000086  00000+0  67726-4 0  9990
2 65567  81.3052   1.5776 0005844 163.6062 196.5284 13.83048621 40107
PRAETORIAN SDA_605      
1 65568U 25203D   26178.52254422  .00000050  00000+0  34429-4 0  9992
2 65568  81.3018   1.1985 0008657 155.6214 204.5353 13.83434958 40124
PRAETORIAN SDA_606      
1 65569U 25203E   26178.50687934  .00000034  00000+0  19889-4 0  9994
2 65569  81.3052   1.4425 0006510 158.2596 201.8838 13.83198567 40113
PRAETORIAN SDA_607      
1 65570U 25203F   26178.50679221  .00000168  00000+0  13937-3 0  9991
2 65570  81.3040   1.0863 0009216 159.7854 200.3670 13.84285328 40136
PRAETORIAN SDA_608      
1 65571U 25203G   26178.48767295  .00000058  00000+0  41471-4 0  9991
2 65571  81.3005   1.2701 0006359 162.8975 197.2396 13.83817541 40119
PRAETORIAN SDA_609      
1 65572U 25203H   26178.48966287  .00000198  00000+0  16674-3 0  9995
2 65572  81.3049   1.2495 0007302 157.6407 202.5069 13.84210327 40127
PRAETORIAN SDA_610      
1 65573U 25203J   26178.46777240  .00000083  00000+0  64480-4 0  9995
2 65573  81.3006   1.2474 0007118 162.5121 197.6282 13.83768540 40115
PRAETORIAN SDA_611      
1 65574U 25203K   26178.47197962  .00000307  00000+0  26925-3 0  9994
2 65574  81.3005   1.4170 0005888 166.1766 193.9553 13.83309770 40102
PRAETORIAN SDA_612      
1 65575U 25203L   26177.79860335  .00000164  00000+0  13482-3 0  9995
2 65575  81.3029   1.6023 0009629 161.1403 199.0113 13.85039752 40042
PRAETORIAN SDA_613      
1 65576U 25203M   26178.48276779  .00000070  00000+0  53561-4 0  9995
2 65576  81.2998   1.4114 0006129 156.6676 203.4759 13.82766025 40109
PRAETORIAN SDA_614      
1 65577U 25203N   26178.51212561  .00000054  00000+0  37442-4 0  9991
2 65577  81.3013   1.0205 0007591 156.1619 203.9891 13.84778037 40146
PRAETORIAN SDA_615      
1 65578U 25203P   26178.49155709  .00000106  00000+0  83960-4 0  9993
2 65578  81.3023   1.0100 0009503 157.7087 202.4485 13.84437244 40137
PRAETORIAN SDA_616      
1 65579U 25203Q   26178.47150015  .00000204  00000+0  17538-3 0  9993
2 65579  81.3068   1.5681 0005978 164.8592 195.2744 13.83269095 40108
PRAETORIAN SDA_617      
1 65580U 25203R   26178.49398190  .00000051  00000+0  35860-4 0  9994
2 65580  81.3035   1.3784 0007850 156.6888 203.4626 13.83150594 40119
PRAETORIAN SDA_618      
1 65581U 25203S   26177.44424983  .00000028  00000+0  14181-4 0  9996
2 65581  81.3021   1.9070 0010122 162.7241 197.4262 13.84669977 39999
PRAETORIAN SDA_619      
1 65582U 25203T   26178.49822481  .00000163  00000+0  13609-3 0  9991
2 65582  81.3046   1.2430 0008637 157.9077 202.2454 13.83806793 40753
PRAETORIAN SDA_620      
1 65583U 25203U   26178.52760965  .00000201  00000+0  17110-3 0  9998
2 65583  81.3029   1.2384 0008090 153.9613 206.1952 13.83618776 40127
PRAETORIAN SDA_621      
1 65584U 25203V   26178.50002904  .00000065  00000+0  48110-4 0  9992
2 65584  81.3020   1.1777 0007918 151.6103 208.5486 13.83802185 40128
PRAETORIAN SDA_601      
1 65585U 25203W   26178.47537975  .00000301  00000+0  26435-3 0  9998
2 65585  81.3039   1.5085 0005899 167.9049 192.2250 13.83168463 40100
VICTUS HAZE PUMA        
1 69646U 26142A   26178.54607279  .00004004  00000+0  18422-3 0  9997
2 69646  97.4482  76.0519 0021030 290.2616  69.6359 15.20725325  1244
